{
  "type": "FeatureCollection",
  "features": [
    {
      "type": "Feature",
      "properties": {
        "norad_id": 38250,
        "name": "BEIDOU-2 M3 (C11)",
        "group": "beidou",
        "lat": 52.16069936049531,
        "lon": 11.262566255097592,
        "alt_km": 21583.937633693575,
        "timestamp": "2025-12-26T09:30:53.902967+00:00",
        "meta_object_name": "BEIDOU-2 M3 (C11)",
        "meta_object_id": "2012-018A",
        "meta_epoch": "2025-12-24T03:22:03.617760",
        "meta_mean_motion": 1.86230154,
        "meta_eccentricity": 0.00241099,
        "meta_inclination": 55.9106,
        "meta_ra_of_asc_node": 310.7747,
        "meta_arg_of_pericenter": 275.3713,
        "meta_mean_anomaly": 84.3565,
        "meta_ephemeris_type": 0,
        "meta_classification_type": "U",
        "meta_norad_cat_id": 38250,
        "meta_element_set_no": 999,
        "meta_rev_at_epoch": 9268,
        "meta_bstar": 0,
        "meta_mean_motion_dot": -5.3e-07,
        "meta_mean_motion_ddot": 0,
        "tle_line1": "1 38250U 12018A   25358.14031965 -.00000053  00000+0  00000+0 0  9999",
        "tle_line2": "2 38250  55.9106 310.7747 0024109 275.3713  84.3565  1.86230154 92685"
      },
      "geometry": {
        "type": "Point",
        "coordinates": [
          11.262566255097592,
          52.16069936049531
        ]
      }
    },
    {
      "type": "Feature",
      "properties": {
        "norad_id": 38251,
        "name": "BEIDOU-2 M4 (C12)",
        "group": "beidou",
        "lat": 46.94502736607904,
        "lon": 83.28585397361324,
        "alt_km": 21562.835991832973,
        "timestamp": "2025-12-26T09:30:53.902979+00:00",
        "meta_object_name": "BEIDOU-2 M4 (C12)",
        "meta_object_id": "2012-018B",
        "meta_epoch": "2025-12-26T05:17:08.054304",
        "meta_mean_motion": 1.86229703,
        "meta_eccentricity": 0.0015168,
        "meta_inclination": 55.8098,
        "meta_ra_of_asc_node": 309.9329,
        "meta_arg_of_pericenter": 279.718,
        "meta_mean_anomaly": 80.1169,
        "meta_ephemeris_type": 0,
        "meta_classification_type": "U",
        "meta_norad_cat_id": 38251,
        "meta_element_set_no": 999,
        "meta_rev_at_epoch": 9272,
        "meta_bstar": 0,
        "meta_mean_motion_dot": -5.5e-07,
        "meta_mean_motion_ddot": 0,
        "tle_line1": "1 38251U 12018B   25360.22023211 -.00000055  00000+0  00000+0 0  9999",
        "tle_line2": "2 38251  55.8098 309.9329 0015168 279.7180  80.1169  1.86229703 92729"
      },
      "geometry": {
        "type": "Point",
        "coordinates": [
          83.28585397361324,
          46.94502736607904
        ]
      }
    },
    {
      "type": "Feature",
      "properties": {
        "norad_id": 38775,
        "name": "BEIDOU-2 M6 (C14)",
        "group": "beidou",
        "lat": -38.29822546845596,
        "lon": 36.989676706249355,
        "alt_km": 21505.355738740862,
        "timestamp": "2025-12-26T09:30:53.902990+00:00",
        "meta_object_name": "BEIDOU-2 M6 (C14)",
        "meta_object_id": "2012-050B",
        "meta_epoch": "2025-12-24T07:41:05.368128",
        "meta_mean_motion": 1.86230801,
        "meta_eccentricity": 0.00114872,
        "meta_inclination": 56.388,
        "meta_ra_of_asc_node": 68.6832,
        "meta_arg_of_pericenter": 343.1884,
        "meta_mean_anomaly": 16.8281,
        "meta_ephemeris_type": 0,
        "meta_classification_type": "U",
        "meta_norad_cat_id": 38775,
        "meta_element_set_no": 999,
        "meta_rev_at_epoch": 9005,
        "meta_bstar": 0,
        "meta_mean_motion_dot": -2.4e-07,
        "meta_mean_motion_ddot": 0,
        "tle_line1": "1 38775U 12050B   25358.32020102 -.00000024  00000+0  00000+0 0  9996",
        "tle_line2": "2 38775  56.3880  68.6832 0011487 343.1884  16.8281  1.86230801 90056"
      },
      "geometry": {
        "type": "Point",
        "coordinates": [
          36.989676706249355,
          -38.29822546845596
        ]
      }
    },
    {
      "type": "Feature",
      "properties": {
        "norad_id": 38953,
        "name": "BEIDOU-2 G6 (C02)",
        "group": "beidou",
        "lat": -3.6632781903888616,
        "lon": -38.307353256358965,
        "alt_km": 35763.42265200841,
        "timestamp": "2025-12-26T09:30:53.903002+00:00",
        "meta_object_name": "BEIDOU-2 G6 (C02)",
        "meta_object_id": "2012-059A",
        "meta_epoch": "2025-12-25T22:54:51.748704",
        "meta_mean_motion": 1.00274748,
        "meta_eccentricity": 0.0007884,
        "meta_inclination": 3.9809,
        "meta_ra_of_asc_node": 75.381,
        "meta_arg_of_pericenter": 293.9359,
        "meta_mean_anomaly": 153.0475,
        "meta_ephemeris_type": 0,
        "meta_classification_type": "U",
        "meta_norad_cat_id": 38953,
        "meta_element_set_no": 999,
        "meta_rev_at_epoch": 4817,
        "meta_bstar": 0,
        "meta_mean_motion_dot": -1.55e-06,
        "meta_mean_motion_ddot": 0,
        "tle_line1": "1 38953U 12059A   25359.95476561 -.00000155  00000+0  00000+0 0  9992",
        "tle_line2": "2 38953   3.9809  75.3810 0007884 293.9359 153.0475  1.00274748 48178"
      },
      "geometry": {
        "type": "Point",
        "coordinates": [
          -38.307353256358965,
          -3.6632781903888616
        ]
      }
    },
    {
      "type": "Feature",
      "properties": {
        "norad_id": 40549,
        "name": "BEIDOU-3S IGSO-1S (C31)",
        "group": "beidou",
        "lat": 25.880965041776633,
        "lon": -38.044508407260395,
        "alt_km": 35922.0879680632,
        "timestamp": "2025-12-26T09:30:53.903014+00:00",
        "meta_object_name": "BEIDOU-3S IGSO-1S (C31)",
        "meta_object_id": "2015-019A",
        "meta_epoch": "2025-12-25T18:51:43.024032",
        "meta_mean_motion": 1.00290186,
        "meta_eccentricity": 0.00365496,
        "meta_inclination": 49.5274,
        "meta_ra_of_asc_node": 297.5574,
        "meta_arg_of_pericenter": 194.2723,
        "meta_mean_anomaly": 340.4455,
        "meta_ephemeris_type": 0,
        "meta_classification_type": "U",
        "meta_norad_cat_id": 40549,
        "meta_element_set_no": 999,
        "meta_rev_at_epoch": 3933,
        "meta_bstar": 0,
        "meta_mean_motion_dot": -1.76e-06,
        "meta_mean_motion_ddot": 0,
        "tle_line1": "1 40549U 15019A   25359.78591463 -.00000176  00000+0  00000+0 0  9998",
        "tle_line2": "2 40549  49.5274 297.5574 0036549 194.2723 340.4455  1.00290186 39339"
      },
      "geometry": {
        "type": "Point",
        "coordinates": [
          -38.044508407260395,
          25.880965041776633
        ]
      }
    },
    {
      "type": "Feature",
      "properties": {
        "norad_id": 40748,
        "name": "BEIDOU-3S M2S (C58)",
        "group": "beidou",
        "lat": -15.74243063080969,
        "lon": -63.388727008701785,
        "alt_km": 21518.77359259283,
        "timestamp": "2025-12-26T09:30:53.903026+00:00",
        "meta_object_name": "BEIDOU-3S M2S (C58)",
        "meta_object_id": "2015-037A",
        "meta_epoch": "2025-12-24T19:32:44.901312",
        "meta_mean_motion": 1.86229543,
        "meta_eccentricity": 0.00118109,
        "meta_inclination": 55.028,
        "meta_ra_of_asc_node": 308.0499,
        "meta_arg_of_pericenter": 271.2412,
        "meta_mean_anomaly": 88.6304,
        "meta_ephemeris_type": 0,
        "meta_classification_type": "U",
        "meta_norad_cat_id": 40748,
        "meta_element_set_no": 999,
        "meta_rev_at_epoch": 7087,
        "meta_bstar": 0,
        "meta_mean_motion_dot": -5.3e-07,
        "meta_mean_motion_ddot": 0,
        "tle_line1": "1 40748U 15037A   25358.81440858 -.00000053  00000+0  00000+0 0  9997",
        "tle_line2": "2 40748  55.0280 308.0499 0011810 271.2412  88.6304  1.86229543 70879"
      },
      "geometry": {
        "type": "Point",
        "coordinates": [
          -63.388727008701785,
          -15.74243063080969
        ]
      }
    },
    {
      "type": "Feature",
      "properties": {
        "norad_id": 40749,
        "name": "BEIDOU-3S M1S (C57)",
        "group": "beidou",
        "lat": -6.222059469288788,
        "lon": 132.34105656688405,
        "alt_km": 21537.203804324603,
        "timestamp": "2025-12-26T09:30:53.903037+00:00",
        "meta_object_name": "BEIDOU-3S M1S (C57)",
        "meta_object_id": "2015-037B",
        "meta_epoch": "2025-12-25T13:55:00.289344",
        "meta_mean_motion": 1.8625384,
        "meta_eccentricity": 0.0003723,
        "meta_inclination": 55.0236,
        "meta_ra_of_asc_node": 308.0126,
        "meta_arg_of_pericenter": 2.956,
        "meta_mean_anomaly": 357.054,
        "meta_ephemeris_type": 0,
        "meta_classification_type": "U",
        "meta_norad_cat_id": 40749,
        "meta_element_set_no": 999,
        "meta_rev_at_epoch": 7089,
        "meta_bstar": 0,
        "meta_mean_motion_dot": -5.4e-07,
        "meta_mean_motion_ddot": 0,
        "tle_line1": "1 40749U 15037B   25359.57986446 -.00000054  00000+0  00000+0 0  9991",
        "tle_line2": "2 40749  55.0236 308.0126 0003723   2.9560 357.0540  1.86253840 70899"
      },
      "geometry": {
        "type": "Point",
        "coordinates": [
          132.34105656688405,
          -6.222059469288788
        ]
      }
    }
  ]
}